start=new Date('2022-08-22T00:00:00.000Z').valueOf();
sats=[{"OBJECT_ID":"2020-088S","FILE":"3542671","OBJECT_NAME":"STARLINK-1850","CLASSIFICATION_TYPE":"U","PERIOD":"95.593","TLE_LINE1":"1 47138U 20088S   22233.70385841  .00000870  00000-0  77306-4 0  9991","APOAPSIS":"548.290","MEAN_ANOMALY":"287.5104","RCS_SIZE":"LARGE","DECAY_DATE":null,"REV_AT_EPOCH":"9657","CENTER_NAME":"EARTH","MEAN_ELEMENT_THEORY":"SGP4","ELEMENT_SET_NO":"999","INCLINATION":"53.0568","ECCENTRICITY":"0.00014850","SEMIMAJOR_AXIS":"6925.396","GP_ID":"210690489","MEAN_MOTION_DOT":"0.00000870","LAUNCH_DATE":"2020-11-25","ARG_OF_PERICENTER":"72.6047","PERIAPSIS":"546.233","TIME_SYSTEM":"UTC","EPHEMERIS_TYPE":"0","REF_FRAME":"TEME","MEAN_MOTION":"15.06384419","COUNTRY_CODE":"US","SITE":"AFETR","MEAN_MOTION_DDOT":"0.0000000000000","RA_OF_ASC_NODE":"354.8487","EPOCH":"2022-08-21T16:53:33.366624","BSTAR":"0.00007730600000","OBJECT_TYPE":"PAYLOAD","NORAD_CAT_ID":"47138","TLE_LINE2":"2 47138  53.0568 354.8487 0001485  72.6047 287.5104 15.06384419 96570"},{"ECCENTRICITY":"0.00015030","SEMIMAJOR_AXIS":"6925.449","GP_ID":"210690739","MEAN_MOTION_DOT":"0.00004001","LAUNCH_DATE":"2020-11-25","REV_AT_EPOCH":"9645","CENTER_NAME":"EARTH","MEAN_ELEMENT_THEORY":"SGP4","ELEMENT_SET_NO":"999","INCLINATION":"53.0554","TLE_LINE1":"1 47139U 20088T   22233.88721782  .00004001  00000-0  28759-3 0  9996","MEAN_ANOMALY":"265.5229","APOAPSIS":"548.355","RCS_SIZE":"LARGE","DECAY_DATE":null,"OBJECT_ID":"2020-088T","FILE":"3542671","OBJECT_NAME":"STARLINK-1852","CLASSIFICATION_TYPE":"U","PERIOD":"95.594","EPOCH":"2022-08-21T21:17:35.619648","BSTAR":"0.00028759000000","OBJECT_TYPE":"PAYLOAD","NORAD_CAT_ID":"47139","TLE_LINE2":"2 47139  53.0554   3.8990 0001503  94.5931 265.5229 15.06367249 96455","MEAN_MOTION":"15.06367249","COUNTRY_CODE":"US","MEAN_MOTION_DDOT":"0.0000000000000","SITE":"AFETR","RA_OF_ASC_NODE":"3.8990","EPHEMERIS_TYPE":"0","REF_FRAME":"TEME","ARG_OF_PERICENTER":"94.5931","PERIAPSIS":"546.273","TIME_SYSTEM":"UTC"},{"PERIAPSIS":"546.325","ARG_OF_PERICENTER":"78.3993","TIME_SYSTEM":"UTC","EPHEMERIS_TYPE":"0","REF_FRAME":"TEME","COUNTRY_CODE":"US","MEAN_MOTION":"15.06385524","RA_OF_ASC_NODE":"349.3485","MEAN_MOTION_DDOT":"0.0000000000000","SITE":"AFETR","OBJECT_TYPE":"PAYLOAD","BSTAR":"0.00005044300000","EPOCH":"2022-08-21T17:55:12.660384","TLE_LINE2":"2 47141  53.0551 349.3485 0001347  78.3993 281.7147 15.06385524 96653","NORAD_CAT_ID":"47141","CLASSIFICATION_TYPE":"U","OBJECT_NAME":"STARLINK-1854","FILE":"3542671","OBJECT_ID":"2020-088V","PERIOD":"95.593","TLE_LINE1":"1 47141U 20088V   22233.74667431  .00000470  00000-0  50443-4 0  9996","APOAPSIS":"548.191","MEAN_ANOMALY":"281.7147","DECAY_DATE":null,"RCS_SIZE":"LARGE","ELEMENT_SET_NO":"999","REV_AT_EPOCH":"9665","MEAN_ELEMENT_THEORY":"SGP4","CENTER_NAME":"EARTH","INCLINATION":"53.0551","SEMIMAJOR_AXIS":"6925.393","GP_ID":"210690988","ECCENTRICITY":"0.00013470","LAUNCH_DATE":"2020-11-25","MEAN_MOTION_DOT":"0.00000470"},{"ARG_OF_PERICENTER":"85.9479","PERIAPSIS":"546.294","TIME_SYSTEM":"UTC","EPHEMERIS_TYPE":"0","REF_FRAME":"TEME","MEAN_MOTION":"15.06393523","COUNTRY_CODE":"US","SITE":"AFETR","MEAN_MOTION_DDOT":"0.0000000000000","RA_OF_ASC_NODE":"349.4125","EPOCH":"2022-08-21T17:28:38.942400","OBJECT_TYPE":"PAYLOAD","BSTAR":"0.00008968600000","NORAD_CAT_ID":"47143","TLE_LINE2":"2 47143  53.0569 349.4125 0001357  85.9479 274.1665 15.06393523 96648","FILE":"3542671","OBJECT_ID":"2020-088X","CLASSIFICATION_TYPE":"U","OBJECT_NAME":"STARLINK-1856","PERIOD":"95.593","TLE_LINE1":"1 47143U 20088X   22233.72822850  .00001054  00000-0  89686-4 0  9994","MEAN_ANOMALY":"274.1665","APOAPSIS":"548.173","RCS_SIZE":"LARGE","DECAY_DATE":null,"REV_AT_EPOCH":"9664","MEAN_ELEMENT_THEORY":"SGP4","CENTER_NAME":"EARTH","ELEMENT_SET_NO":"999","INCLINATION":"53.0569","ECCENTRICITY":"0.00013570","SEMIMAJOR_AXIS":"6925.368","GP_ID":"210691241","MEAN_MOTION_DOT":"0.00001054","LAUNCH_DATE":"2020-11-25"},{"OBJECT_ID":"2020-088Y","FILE":"3542305","OBJECT_NAME":"STARLINK-1857","CLASSIFICATION_TYPE":"U","PERIOD":"95.593","TLE_LINE1":"1 47144U 20088Y   22233.58171552  .00001610  00000-0  12695-3 0  9998","MEAN_ANOMALY":"278.4646","APOAPSIS":"548.300","RCS_SIZE":"LARGE","DECAY_DATE":null,"REV_AT_EPOCH":"9676","CENTER_NAME":"EARTH","MEAN_ELEMENT_THEORY":"SGP4","ELEMENT_SET_NO":"999","INCLINATION":"53.0557","ECCENTRICITY":"0.00015380","SEMIMAJOR_AXIS":"6925.370","GP_ID":"210657442","MEAN_MOTION_DOT":"0.00001610","LAUNCH_DATE":"2020-11-25","ARG_OF_PERICENTER":"81.6517","PERIAPSIS":"546.170","TIME_SYSTEM":"UTC","EPHEMERIS_TYPE":"0","REF_FRAME":"TEME","MEAN_MOTION":"15.06392906","COUNTRY_CODE":"US","SITE":"AFETR","MEAN_MOTION_DDOT":"0.0000000000000","RA_OF_ASC_NODE":"340.0722","EPOCH":"2022-08-21T13:57:40.220928","BSTAR":"0.00012695000000","OBJECT_TYPE":"PAYLOAD","NORAD_CAT_ID":"47144","TLE_LINE2":"2 47144  53.0557 340.0722 0001538  81.6517 278.4646 15.06392906 96766"},{"NORAD_CAT_ID":"47147","TLE_LINE2":"2 47147  53.0558 359.3766 0001623  76.5434 283.5736 15.06395958 96517","EPOCH":"2022-08-21T17:43:15.007296","BSTAR":"0.00006957800000","OBJECT_TYPE":"PAYLOAD","MEAN_MOTION_DDOT":"0.0000000000000","SITE":"AFETR","RA_OF_ASC_NODE":"359.3766","MEAN_MOTION":"15.06395958","COUNTRY_CODE":"US","REF_FRAME":"TEME","EPHEMERIS_TYPE":"0","TIME_SYSTEM":"UTC","ARG_OF_PERICENTER":"76.5434","PERIAPSIS":"546.102","MEAN_MOTION_DOT":"0.00000755","LAUNCH_DATE":"2020-11-25","ECCENTRICITY":"0.00016230","SEMIMAJOR_AXIS":"6925.361","GP_ID":"210690240","INCLINATION":"53.0558","REV_AT_EPOCH":"9651","CENTER_NAME":"EARTH","MEAN_ELEMENT_THEORY":"SGP4","ELEMENT_SET_NO":"999","RCS_SIZE":"LARGE","DECAY_DATE":null,"MEAN_ANOMALY":"283.5736","TLE_LINE1":"1 47147U 20088AB  22233.73836814  .00000755  00000-0  69578-4 0  9999","APOAPSIS":"548.350","PERIOD":"95.592","OBJECT_ID":"2020-088AB","FILE":"3542671","OBJECT_NAME":"STARLINK-1860","CLASSIFICATION_TYPE":"U"},{"COUNTRY_CODE":"US","MEAN_MOTION":"15.06395175","RA_OF_ASC_NODE":"349.4964","SITE":"AFETR","MEAN_MOTION_DDOT":"0.0000000000000","BSTAR":"0.00012333000000","OBJECT_TYPE":"PAYLOAD","EPOCH":"2022-08-21T17:07:24.905280","TLE_LINE2":"2 47148  53.0563 349.4964 0001296  75.9321 284.1812 15.06395175 96645","NORAD_CAT_ID":"47148","PERIAPSIS":"546.331","ARG_OF_PERICENTER":"75.9321","TIME_SYSTEM":"UTC","EPHEMERIS_TYPE":"0","REF_FRAME":"TEME","ELEMENT_SET_NO":"999","REV_AT_EPOCH":"9664","MEAN_ELEMENT_THEORY":"SGP4","CENTER_NAME":"EARTH","INCLINATION":"53.0563","GP_ID":"210691488","SEMIMAJOR_AXIS":"6925.363","ECCENTRICITY":"0.00012960","LAUNCH_DATE":"2020-11-25","MEAN_MOTION_DOT":"0.00001556","OBJECT_NAME":"STARLINK-1861","CLASSIFICATION_TYPE":"U","OBJECT_ID":"2020-088AC","FILE":"3542671","PERIOD":"95.592","TLE_LINE1":"1 47148U 20088AC  22233.71348270  .00001556  00000-0  12333-3 0  9998","APOAPSIS":"548.126","MEAN_ANOMALY":"284.1812","DECAY_DATE":null,"RCS_SIZE":"LARGE"},{"EPOCH":"2022-08-21T17:48:33.511392","BSTAR":"-0.00005478300000","OBJECT_TYPE":"PAYLOAD","NORAD_CAT_ID":"47149","TLE_LINE2":"2 47149  53.0570 359.3531 0001139  92.9874 267.1246 15.06393465 97241","MEAN_MOTION":"15.06393465","COUNTRY_CODE":"US","MEAN_MOTION_DDOT":"0.0000000000000","SITE":"AFETR","RA_OF_ASC_NODE":"359.3531","EPHEMERIS_TYPE":"0","REF_FRAME":"TEME","ARG_OF_PERICENTER":"92.9874","PERIAPSIS":"546.445","TIME_SYSTEM":"UTC","ECCENTRICITY":"0.00011390","SEMIMAJOR_AXIS":"6925.369","GP_ID":"210691741","MEAN_MOTION_DOT":"-0.00001097","LAUNCH_DATE":"2020-11-25","MEAN_ELEMENT_THEORY":"SGP4","REV_AT_EPOCH":"9724","CENTER_NAME":"EARTH","ELEMENT_SET_NO":"999","INCLINATION":"53.0570","TLE_LINE1":"1 47149U 20088AD  22233.74205453 -.00001097  00000-0 -54783-4 0  9995","APOAPSIS":"548.022","MEAN_ANOMALY":"267.1246","RCS_SIZE":"LARGE","DECAY_DATE":null,"OBJECT_ID":"2020-088AD","FILE":"3542671","OBJECT_NAME":"STARLINK-1862","CLASSIFICATION_TYPE":"U","PERIOD":"95.593"},{"ECCENTRICITY":"0.00014220","SEMIMAJOR_AXIS":"6925.376","GP_ID":"210690490","MEAN_MOTION_DOT":"0.00000910","LAUNCH_DATE":"2020-11-25","MEAN_ELEMENT_THEORY":"SGP4","REV_AT_EPOCH":"9665","CENTER_NAME":"EARTH","ELEMENT_SET_NO":"999","INCLINATION":"53.0561","TLE_LINE1":"1 47150U 20088AE  22233.73560662  .00000910  00000-0  80010-4 0  9995","MEAN_ANOMALY":"271.2166","APOAPSIS":"548.226","RCS_SIZE":"LARGE","DECAY_DATE":null,"OBJECT_ID":"2020-088AE","FILE":"3542671","OBJECT_NAME":"STARLINK-1863","CLASSIFICATION_TYPE":"U","PERIOD":"95.593","EPOCH":"2022-08-21T17:39:16.411968","BSTAR":"0.00008001000000","OBJECT_TYPE":"PAYLOAD","NORAD_CAT_ID":"47150","TLE_LINE2":"2 47150  53.0561 349.3753 0001422  88.8986 271.2166 15.06390954 96652","MEAN_MOTION":"15.06390954","COUNTRY_CODE":"US","SITE":"AFETR","MEAN_MOTION_DDOT":"0.0000000000000","RA_OF_ASC_NODE":"349.3753","EPHEMERIS_TYPE":"0","REF_FRAME":"TEME","ARG_OF_PERICENTER":"88.8986","PERIAPSIS":"546.256","TIME_SYSTEM":"UTC"},{"INCLINATION":"53.0557","ELEMENT_SET_NO":"999","MEAN_ELEMENT_THEORY":"SGP4","REV_AT_EPOCH":"9650","CENTER_NAME":"EARTH","LAUNCH_DATE":"2020-11-25","MEAN_MOTION_DOT":"0.00001032","GP_ID":"210690740","SEMIMAJOR_AXIS":"6925.406","ECCENTRICITY":"0.00013540","PERIOD":"95.593","CLASSIFICATION_TYPE":"U","OBJECT_NAME":"STARLINK-1864","FILE":"3542671","OBJECT_ID":"2020-088AF","DECAY_DATE":null,"RCS_SIZE":"LARGE","TLE_LINE1":"1 47151U 20088AF  22233.73468487  .00001032  00000-0  88232-4 0  9998","APOAPSIS":"548.208","MEAN_ANOMALY":"274.4345","RA_OF_ASC_NODE":"359.3948","MEAN_MOTION_DDOT":"0.0000000000000","SITE":"AFETR","COUNTRY_CODE":"US","MEAN_MOTION":"15.06381375","TLE_LINE2":"2 47151  53.0557 359.3948 0001354  85.6799 274.4345 15.06381375 96501","NORAD_CAT_ID":"47151","OBJECT_TYPE":"PAYLOAD","BSTAR":"0.00008823200000","EPOCH":"2022-08-21T17:37:56.772768","TIME_SYSTEM":"UTC","PERIAPSIS":"546.333","ARG_OF_PERICENTER":"85.6799","REF_FRAME":"TEME","EPHEMERIS_TYPE":"0"}];
